[
    {
        "Altitude(m)": 553859.9956104077,
        "Argument of Periapsis(deg)": 0.006622991110713501,
        "Eccentricity": 0.0,
        "Inclination(deg)": 53.0,
        "Latitude(deg)": 3.4928441496244984,
        "Longitude(deg)": -58.394840170796684,
        "Mean Anomaly(deg)": -184.4538071324224,
        "RAAN(deg)": 224.99014336852804,
        "Satellite Name": "Starlink Shell 1 1000",
        "Satellite Number": 1000,
        "Semi-Major Axis(m)": 6931778.249405717,
        "Time(s)": 190
    },
    {
        "Altitude(m)": 553907.2766468333,
        "Argument of Periapsis(deg)": 0.0069715695902247375,
        "Eccentricity": 0.0,
        "Inclination(deg)": 53.0,
        "Latitude(deg)": 2.9893187038705826,
        "Longitude(deg)": -58.05822874720656,
        "Mean Anomaly(deg)": -183.8269759288657,
        "RAAN(deg)": 224.98962459845052,
        "Satellite Name": "Starlink Shell 1 1000",
        "Satellite Number": 1000,
        "Semi-Major Axis(m)": 6931778.249405717,
        "Time(s)": 200
    },
    {
        "Altitude(m)": 553957.3774121696,
        "Argument of Periapsis(deg)": 0.007320148069735974,
        "Eccentricity": 0.0,
        "Inclination(deg)": 53.0,
        "Latitude(deg)": 2.485666526862092,
        "Longitude(deg)": -57.72196754537577,
        "Mean Anomaly(deg)": -183.200144725309,
        "RAAN(deg)": 224.98910582837308,
        "Satellite Name": "Starlink Shell 1 1000",
        "Satellite Number": 1000,
        "Semi-Major Axis(m)": 6931778.249405717,
        "Time(s)": 210
    },
    {
        "Altitude(m)": 554010.2972761532,
        "Argument of Periapsis(deg)": 0.007668726549247212,
        "Eccentricity": 0.0,
        "Inclination(deg)": 53.0,
        "Latitude(deg)": 1.9819107043813755,
        "Longitude(deg)": -57.385998638463015,
        "Mean Anomaly(deg)": -182.57331352175223,
        "RAAN(deg)": 224.98858705829562,
        "Satellite Name": "Starlink Shell 1 1000",
        "Satellite Number": 1000,
        "Semi-Major Axis(m)": 6931778.249405717,
        "Time(s)": 220
    },
    {
        "Altitude(m)": 554066.0342557537,
        "Argument of Periapsis(deg)": 0.00801730502875845,
        "Eccentricity": 0.0,
        "Inclination(deg)": 53.0,
        "Latitude(deg)": 1.4780742605702744,
        "Longitude(deg)": -57.050264229950244,
        "Mean Anomaly(deg)": -181.94648231819554,
        "RAAN(deg)": 224.98806828821813,
        "Satellite Name": "Starlink Shell 1 1000",
        "Satellite Number": 1000,
        "Semi-Major Axis(m)": 6931778.249405717,
        "Time(s)": 230
    },
    {
        "Altitude(m)": 554124.5850133928,
        "Argument of Periapsis(deg)": 0.008365883508269684,
        "Eccentricity": 0.0,
        "Inclination(deg)": 53.0,
        "Latitude(deg)": 0.974180169727714,
        "Longitude(deg)": -56.71470612402938,
        "Mean Anomaly(deg)": -181.31965111463882,
        "RAAN(deg)": 224.98754951814067,
        "Satellite Name": "Starlink Shell 1 1000",
        "Satellite Number": 1000,
        "Semi-Major Axis(m)": 6931778.249405717,
        "Time(s)": 240
    },
    {
        "Altitude(m)": 554185.944855851,
        "Argument of Periapsis(deg)": 0.008714461987780921,
        "Eccentricity": 0.0,
        "Inclination(deg)": 53.0,
        "Latitude(deg)": 0.4702513680603312,
        "Longitude(deg)": -56.3792667088986,
        "Mean Anomaly(deg)": -180.69281991108213,
        "RAAN(deg)": 224.9870307480632,
        "Satellite Name": "Starlink Shell 1 1000",
        "Satellite Number": 1000,
        "Semi-Major Axis(m)": 6931778.249405717,
        "Time(s)": 250
    },
    {
        "Altitude(m)": 554250.1077338503,
        "Argument of Periapsis(deg)": 0.009063040467292158,
        "Eccentricity": 0.0,
        "Inclination(deg)": 53.0,
        "Latitude(deg)": -0.03368923460198294,
        "Longitude(deg)": -56.04388842721168,
        "Mean Anomaly(deg)": -180.0659887075254,
        "RAAN(deg)": 224.9865119779857,
        "Satellite Name": "Starlink Shell 1 1000",
        "Satellite Number": 1000,
        "Semi-Major Axis(m)": 6931778.249405717,
        "Time(s)": 260
    },
    {
        "Altitude(m)": 554317.0662422845,
        "Argument of Periapsis(deg)": 0.009411618946803396,
        "Eccentricity": 0.0,
        "Inclination(deg)": 53.0,
        "Latitude(deg)": -0.5376187431137391,
        "Longitude(deg)": -55.70851324654803,
        "Mean Anomaly(deg)": -179.4391575039687,
        "RAAN(deg)": 224.98599320790822,
        "Satellite Name": "Starlink Shell 1 1000",
        "Satellite Number": 1000,
        "Semi-Major Axis(m)": 6931778.249405717,
        "Time(s)": 270
    },
    {
        "Altitude(m)": 554386.8116211798,
        "Argument of Periapsis(deg)": 0.009760197426314633,
        "Eccentricity": 0.0,
        "Inclination(deg)": 53.0,
        "Latitude(deg)": -1.0415142653363012,
        "Longitude(deg)": -55.37308364276847,
        "Mean Anomaly(deg)": -178.81232630041197,
        "RAAN(deg)": 224.98547443783076,
        "Satellite Name": "Starlink Shell 1 1000",
        "Satellite Number": 1000,
        "Semi-Major Axis(m)": 6931778.249405717,
        "Time(s)": 280
    },
    {
        "Altitude(m)": 554459.3337572843,
        "Argument of Periapsis(deg)": 0.01010877590582587,
        "Eccentricity": 0.0,
        "Inclination(deg)": 53.0,
        "Latitude(deg)": -1.545352900460065,
        "Longitude(deg)": -55.037542070502205,
        "Mean Anomaly(deg)": -178.18549509685525,
        "RAAN(deg)": 224.98495566775327,
        "Satellite Name": "Starlink Shell 1 1000",
        "Satellite Number": 1000,
        "Semi-Major Axis(m)": 6931778.249405717,
        "Time(s)": 290
    },
    {
        "Altitude(m)": 554534.6211863805,
        "Argument of Periapsis(deg)": 0.010457354385337106,
        "Eccentricity": 0.0,
        "Inclination(deg)": 53.0,
        "Latitude(deg)": -2.0491117273172246,
        "Longitude(deg)": -54.70183043363128,
        "Mean Anomaly(deg)": -177.55866389329856,
        "RAAN(deg)": 224.9844368976758,
        "Satellite Name": "Starlink Shell 1 1000",
        "Satellite Number": 1000,
        "Semi-Major Axis(m)": 6931778.249405717,
        "Time(s)": 300
    },
    {
        "Altitude(m)": 554612.6610962244,
        "Argument of Periapsis(deg)": 0.010805932864848343,
        "Eccentricity": 0.0,
        "Inclination(deg)": 53.0,
        "Latitude(deg)": -2.5527677926751275,
        "Longitude(deg)": -54.36589106863726,
        "Mean Anomaly(deg)": -176.9318326897418,
        "RAAN(deg)": 224.98391812759834,
        "Satellite Name": "Starlink Shell 1 1000",
        "Satellite Number": 1000,
        "Semi-Major Axis(m)": 6931778.249405717,
        "Time(s)": 310
    },
    {
        "Altitude(m)": 554693.4393302075,
        "Argument of Periapsis(deg)": 0.01115451134435958,
        "Eccentricity": 0.0,
        "Inclination(deg)": 53.0,
        "Latitude(deg)": -3.05629809949567,
        "Longitude(deg)": -54.02966621505734,
        "Mean Anomaly(deg)": -176.30500148618512,
        "RAAN(deg)": 224.98339935752085,
        "Satellite Name": "Starlink Shell 1 1000",
        "Satellite Number": 1000,
        "Semi-Major Axis(m)": 6931778.249405717,
        "Time(s)": 320
    },
    {
        "Altitude(m)": 554776.9403916713,
        "Argument of Periapsis(deg)": 0.011503089823870818,
        "Eccentricity": 0.0,
        "Inclination(deg)": 53.0,
        "Latitude(deg)": -3.5596795951518603,
        "Longitude(deg)": -53.69309748591416,
        "Mean Anomaly(deg)": -175.67817028262837,
        "RAAN(deg)": 224.98288058744342,
        "Satellite Name": "Starlink Shell 1 1000",
        "Satellite Number": 1000,
        "Semi-Major Axis(m)": 6931778.249405717,
        "Time(s)": 330
    },
    {
        "Altitude(m)": 554863.1474488709,
        "Argument of Periapsis(deg)": 0.011851668303382053,
        "Eccentricity": 0.0,
        "Inclination(deg)": 53.0,
        "Latitude(deg)": -4.062889159590374,
        "Longitude(deg)": -53.3561268509872,
        "Mean Anomaly(deg)": -175.05133907907168,
        "RAAN(deg)": 224.98236181736596,
        "Satellite Name": "Starlink Shell 1 1000",
        "Satellite Number": 1000,
        "Semi-Major Axis(m)": 6931778.249405717,
        "Time(s)": 340
    },
    {
        "Altitude(m)": 554952.0423406556,
        "Argument of Periapsis(deg)": 0.012200246782893292,
        "Eccentricity": 0.0,
        "Inclination(deg)": 53.0,
        "Latitude(deg)": -4.5659035934275645,
        "Longitude(deg)": -53.01869610717053,
        "Mean Anomaly(deg)": -174.42450787551493,
        "RAAN(deg)": 224.98184304728846,
        "Satellite Name": "Starlink Shell 1 1000",
        "Satellite Number": 1000,
        "Semi-Major Axis(m)": 6931778.249405717,
        "Time(s)": 350
    },
    {
        "Altitude(m)": 555043.6055827655,
        "Argument of Periapsis(deg)": 0.012548825262404526,
        "Eccentricity": 0.0,
        "Inclination(deg)": 53.0,
        "Latitude(deg)": -5.068699605967153,
        "Longitude(deg)": -52.68074634878478,
        "Mean Anomaly(deg)": -173.7976766719582,
        "RAAN(deg)": 224.981324277211,
        "Satellite Name": "Starlink Shell 1 1000",
        "Satellite Number": 1000,
        "Semi-Major Axis(m)": 6931778.249405717,
        "Time(s)": 360
    },
    {
        "Altitude(m)": 555137.8163748248,
        "Argument of Periapsis(deg)": 0.012897403741915765,
        "Eccentricity": 0.0,
        "Inclination(deg)": 53.0,
        "Latitude(deg)": -5.571253803131126,
        "Longitude(deg)": -52.342218950710155,
        "Mean Anomaly(deg)": -173.17084546840152,
        "RAAN(deg)": 224.9808055071335,
        "Satellite Name": "Starlink Shell 1 1000",
        "Satellite Number": 1000,
        "Semi-Major Axis(m)": 6931778.249405717,
        "Time(s)": 370
    }
]